{
  "links" : {
    "next" : "https://api.nasa.gov/neo/rest/v1/neo/browse?page=38&size=20&api_key=jqAGvNAwUIBu4fl9FSOjdm3V4F7hIglRzI6pdX9d",
    "prev" : "https://api.nasa.gov/neo/rest/v1/neo/browse?page=36&size=20&api_key=jqAGvNAwUIBu4fl9FSOjdm3V4F7hIglRzI6pdX9d",
    "self" : "https://api.nasa.gov/neo/rest/v1/neo/browse?page=37&size=20&api_key=jqAGvNAwUIBu4fl9FSOjdm3V4F7hIglRzI6pdX9d"
  },
  "page" : {
    "size" : 20,
    "total_elements" : 20750,
    "total_pages" : 1038,
    "number" : 37
  },
  "near_earth_objects" : [ {
    "links" : {
      "self" : "https://api.nasa.gov/neo/rest/v1/neo/3401901?api_key=jqAGvNAwUIBu4fl9FSOjdm3V4F7hIglRzI6pdX9d"
    },
    "neo_reference_id" : "3401901",
    "name" : "(2008 CY4)",
    "designation" : "2008 CY4",
    "nasa_jpl_url" : "http://ssd.jpl.nasa.gov/sbdb.cgi?sstr=3401901",
    "absolute_magnitude_h" : 22.4,
    "estimated_diameter" : {
      "kilometers" : {
        "estimated_diameter_min" : 0.0880146521,
        "estimated_diameter_max" : 0.1968067451
      },
      "meters" : {
        "estimated_diameter_min" : 88.0146520901,
        "estimated_diameter_max" : 196.8067450894
      },
      "miles" : {
        "estimated_diameter_min" : 0.0546897524,
        "estimated_diameter_max" : 0.122290004
      },
      "feet" : {
        "estimated_diameter_min" : 288.7619911632,
        "estimated_diameter_max" : 645.6914415591
      }
    },
    "is_potentially_hazardous_asteroid" : false,
    "close_approach_data" : [ {
      "close_approach_date" : "2008-02-13",
      "epoch_date_close_approach" : 1202889600000,
      "relative_velocity" : {
        "kilometers_per_second" : "11.6025017515",
        "kilometers_per_hour" : "41769.0063052751",
        "miles_per_hour" : "25953.6361678527"
      },
      "miss_distance" : {
        "astronomical" : "0.1481151632",
        "lunar" : "57.6167984009",
        "kilometers" : "22157712",
        "miles" : "13768164"
      },
      "orbiting_body" : "Earth"
    } ],
    "orbital_data" : {
      "orbit_id" : "11",
      "orbit_determination_date" : "2017-04-06 09:04:31",
      "first_observation_date" : "2008-02-06",
      "last_observation_date" : "2008-02-16",
      "data_arc_in_days" : 10,
      "observations_used" : 62,
      "orbit_uncertainty" : "8",
      "minimum_orbit_intersection" : ".145924",
      "jupiter_tisserand_invariant" : "3.851",
      "epoch_osculation" : "2454503.5",
      "eccentricity" : ".4200076213811061",
      "semi_major_axis" : "1.838229718509023",
      "inclination" : "18.96632571524141",
      "ascending_node_longitude" : "132.1506359263337",
      "orbital_period" : "910.328420023415",
      "perihelion_distance" : "1.066159226885988",
      "perihelion_argument" : "43.502722759805",
      "aphelion_distance" : "2.610300210132058",
      "perihelion_time" : "2454541.342882720692",
      "mean_anomaly" : "345.0345902865488",
      "mean_motion" : ".395461673041846",
      "equinox" : "J2000",
      "orbit_class" : {
        "orbit_class_type" : "AMO",
        "orbit_class_range" : "1.017 AU < q (perihelion) < 1.3 AU",
        "orbit_class_description" : "Near-Earth asteroid orbits similar to that of 1221 Amor"
      }
    },
    "is_sentry_object" : false
  }, {
    "links" : {
      "self" : "https://api.nasa.gov/neo/rest/v1/neo/3402132?api_key=jqAGvNAwUIBu4fl9FSOjdm3V4F7hIglRzI6pdX9d"
    },
    "neo_reference_id" : "3402132",
    "name" : "(2008 CD6)",
    "designation" : "2008 CD6",
    "nasa_jpl_url" : "http://ssd.jpl.nasa.gov/sbdb.cgi?sstr=3402132",
    "absolute_magnitude_h" : 23.7,
    "estimated_diameter" : {
      "kilometers" : {
        "estimated_diameter_min" : 0.0483676488,
        "estimated_diameter_max" : 0.1081533507
      },
      "meters" : {
        "estimated_diameter_min" : 48.3676488219,
        "estimated_diameter_max" : 108.1533506775
      },
      "miles" : {
        "estimated_diameter_min" : 0.0300542543,
        "estimated_diameter_max" : 0.0672033557
      },
      "feet" : {
        "estimated_diameter_min" : 158.6865169607,
        "estimated_diameter_max" : 354.8338390368
      }
    },
    "is_potentially_hazardous_asteroid" : false,
    "close_approach_data" : [ {
      "close_approach_date" : "2008-01-11",
      "epoch_date_close_approach" : 1200038400000,
      "relative_velocity" : {
        "kilometers_per_second" : "13.0044429337",
        "kilometers_per_hour" : "46815.9945611533",
        "miles_per_hour" : "29089.63839829"
      },
      "miss_distance" : {
        "astronomical" : "0.0409930897",
        "lunar" : "15.9463119507",
        "kilometers" : "6132479",
        "miles" : "3810545.75"
      },
      "orbiting_body" : "Earth"
    } ],
    "orbital_data" : {
      "orbit_id" : "8",
      "orbit_determination_date" : "2017-04-06 09:04:30",
      "first_observation_date" : "2008-02-07",
      "last_observation_date" : "2008-02-11",
      "data_arc_in_days" : 4,
      "observations_used" : 20,
      "orbit_uncertainty" : "9",
      "minimum_orbit_intersection" : ".00233219",
      "jupiter_tisserand_invariant" : "3.592",
      "epoch_osculation" : "2454505.5",
      "eccentricity" : ".5999303368256662",
      "semi_major_axis" : "2.001470106473681",
      "inclination" : "1.071904692191648",
      "ascending_node_longitude" : "178.614953855102",
      "orbital_period" : "1034.241806047526",
      "perihelion_distance" : ".8007274713504237",
      "perihelion_argument" : "235.9030362029384",
      "aphelion_distance" : "3.202212741596939",
      "perihelion_time" : "2454438.727620519817",
      "mean_anomaly" : "23.24220165178787",
      "mean_motion" : ".3480810753297445",
      "equinox" : "J2000",
      "orbit_class" : {
        "orbit_class_type" : "APO",
        "orbit_class_range" : "a (semi-major axis) > 1.0 AU; q (perihelion) < 1.017 AU",
        "orbit_class_description" : "Near-Earth asteroid orbits which cross the Earth’s orbit similar to that of 1862 Apollo"
      }
    },
    "is_sentry_object" : false
  }, {
    "links" : {
      "self" : "https://api.nasa.gov/neo/rest/v1/neo/3402197?api_key=jqAGvNAwUIBu4fl9FSOjdm3V4F7hIglRzI6pdX9d"
    },
    "neo_reference_id" : "3402197",
    "name" : "(2008 CX21)",
    "designation" : "2008 CX21",
    "nasa_jpl_url" : "http://ssd.jpl.nasa.gov/sbdb.cgi?sstr=3402197",
    "absolute_magnitude_h" : 24.6,
    "estimated_diameter" : {
      "kilometers" : {
        "estimated_diameter_min" : 0.0319561887,
        "estimated_diameter_max" : 0.0714562102
      },
      "meters" : {
        "estimated_diameter_min" : 31.9561886721,
        "estimated_diameter_max" : 71.4562101727
      },
      "miles" : {
        "estimated_diameter_min" : 0.0198566489,
        "estimated_diameter_max" : 0.0444008168
      },
      "feet" : {
        "estimated_diameter_min" : 104.8431420431,
        "estimated_diameter_max" : 234.436392583
      }
    },
    "is_potentially_hazardous_asteroid" : false,
    "close_approach_data" : [ {
      "close_approach_date" : "2008-02-09",
      "epoch_date_close_approach" : 1202544000000,
      "relative_velocity" : {
        "kilometers_per_second" : "18.9433259571",
        "kilometers_per_hour" : "68195.9734453937",
        "miles_per_hour" : "42374.3258333336"
      },
      "miss_distance" : {
        "astronomical" : "0.0649697377",
        "lunar" : "25.273229599",
        "kilometers" : "9719335",
        "miles" : "6039315"
      },
      "orbiting_body" : "Earth"
    } ],
    "orbital_data" : {
      "orbit_id" : "7",
      "orbit_determination_date" : "2017-04-06 09:04:29",
      "first_observation_date" : "2008-02-07",
      "last_observation_date" : "2008-02-09",
      "data_arc_in_days" : 2,
      "observations_used" : 21,
      "orbit_uncertainty" : "9",
      "minimum_orbit_intersection" : ".0647619",
      "jupiter_tisserand_invariant" : "3.616",
      "epoch_osculation" : "2454505.5",
      "eccentricity" : ".5112164942115047",
      "semi_major_axis" : "1.926662243466182",
      "inclination" : "28.91079958271667",
      "ascending_node_longitude" : "136.7052293334138",
      "orbital_period" : "976.8025998506729",
      "perihelion_distance" : ".9417207258317277",
      "perihelion_argument" : "48.23925986430536",
      "aphelion_distance" : "2.911603761100636",
      "perihelion_time" : "2454541.708705064242",
      "mean_anomaly" : "346.6553039220823",
      "mean_motion" : ".3685493876193966",
      "equinox" : "J2000",
      "orbit_class" : {
        "orbit_class_type" : "APO",
        "orbit_class_range" : "a (semi-major axis) > 1.0 AU; q (perihelion) < 1.017 AU",
        "orbit_class_description" : "Near-Earth asteroid orbits which cross the Earth’s orbit similar to that of 1862 Apollo"
      }
    },
    "is_sentry_object" : false
  } ]
}